OBJECT_NAME,OBJECT_ID,EPOCH,MEAN_MOTION,ECCENTRICITY,INCLINATION,RA_OF_ASC_NODE,ARG_OF_PERICENTER,MEAN_ANOMALY,EPHEMERIS_TYPE,CLASSIFICATION_TYPE,NORAD_CAT_ID,ELEMENT_SET_NO,REV_AT_EPOCH,BSTAR,MEAN_MOTION_DOT,MEAN_MOTION_DDOT
GLOBALSTAR M069,2007-020C,2026-06-25T13:03:10.896768,12.23471416,.0002148,52.0009,228.4743,166.3867,341.7045,0,U,31573,999,87982,.30421E-3,-.6E-6,0
GLOBALSTAR M072,2007-020D,2026-06-25T20:41:13.115040,11.91658386,.0001512,51.9936,77.1508,353.4624,82.3900,0,U,31574,999,87601,-.12675E-3,-.93E-6,0
GLOBALSTAR M066,2007-048C,2026-06-25T14:18:09.507168,12.30386868,.0005613,51.9609,33.7736,62.0125,315.1136,0,U,32265,999,86126,-.33226E-3,-.134E-5,0
GLOBALSTAR M079,2010-054A,2026-06-25T18:16:32.101824,12.62266156,.0000897,52.0044,82.5685,43.3497,351.2832,0,U,37188,999,72363,-.62468E-4,-.115E-5,0
GLOBALSTAR M074,2010-054B,2026-06-25T12:01:29.168256,12.62268400,.0000717,52.0023,82.6248,63.8298,107.0045,0,U,37189,999,72420,-.53701E-4,-.113E-5,0
GLOBALSTAR M076,2010-054C,2026-06-25T17:33:19.705248,12.62261883,.0000918,52.0029,82.1272,59.2469,319.1533,0,U,37190,999,72395,-.58084E-4,-.114E-5,0
GLOBALSTAR M077,2010-054D,2026-06-25T17:02:08.307168,11.67547922,.0002597,51.9923,157.6630,188.2249,342.9805,0,U,37191,999,72213,.29026E-3,-.62E-6,0
GLOBALSTAR M075,2010-054E,2026-06-25T21:45:30.062880,12.62267334,.0000368,51.9943,123.6435,33.1694,1.4821,0,U,37192,999,72304,-.39667E-4,-.111E-5,0
GLOBALSTAR M073,2010-054F,2026-06-25T20:06:34.711200,12.62266617,.0001056,52.0075,37.9601,65.3750,15.3963,0,U,37193,999,72502,.46487E-4,-.95E-6,0
GLOBALSTAR M083,2011-033A,2026-06-25T20:46:10.240320,12.62263560,.0000961,51.9878,346.0927,81.0105,66.1625,0,U,37739,999,69404,.15824E-3,-.75E-6,0
GLOBALSTAR M088,2011-033B,2026-06-25T14:25:37.696800,12.62268972,.0000525,52.0205,253.3478,139.2589,4.9184,0,U,37740,999,68955,.90488E-4,-.88E-6,0
GLOBALSTAR M091,2011-033C,2026-06-25T12:56:21.707232,12.62264039,.0000098,51.9971,216.4889,171.3227,351.8930,0,U,37741,999,69033,.10043E-3,-.86E-6,0
GLOBALSTAR M085,2011-033D,2026-06-25T16:27:57.615264,12.62264154,.0000304,52.0098,167.3393,350.9257,180.4157,0,U,37742,999,69086,.67247E-4,-.92E-6,0
GLOBALSTAR M081,2011-033E,2026-06-25T07:14:21.048000,12.62265188,.0000203,51.9929,170.9365,37.6637,65.5240,0,U,37743,999,69096,.11329E-3,-.83E-6,0
GLOBALSTAR M089,2011-033F,2026-06-25T21:07:26.324256,12.62267346,.0000469,51.9918,123.3318,78.1481,316.2089,0,U,37744,999,69188,-.25573E-4,-.108E-5,0
GLOBALSTAR M084,2011-080A,2026-06-25T15:58:40.031040,12.62267631,.0001102,52.0028,351.4704,99.6309,339.7971,0,U,38040,999,66983,.54198E-4,-.94E-6,0
GLOBALSTAR M080,2011-080B,2026-06-25T17:12:24.454080,12.62269643,.0000415,52.0084,353.0357,78.1530,4.1823,0,U,38041,999,66996,.7682E-4,-.9E-6,0
GLOBALSTAR M082,2011-080C,2026-06-25T19:54:49.114368,12.62263705,.0000484,52.0091,308.1946,105.6187,59.3357,0,U,38042,999,67068,.28681E-5,-.103E-5,0
GLOBALSTAR M092,2011-080D,2026-06-25T09:49:05.604096,12.62267078,.0000806,52.0097,39.8721,75.1505,96.5278,0,U,38043,999,66908,.14583E-4,-.101E-5,0
GLOBALSTAR M090,2011-080E,2026-06-25T18:38:46.948128,12.62269095,.0000735,52.0135,302.3137,101.7109,62.3604,0,U,38044,999,67079,.13154E-5,-.104E-5,0
GLOBALSTAR M086,2011-080F,2026-06-25T19:09:53.722944,12.62287192,.0001695,51.9911,302.1638,82.0897,81.7934,0,U,38045,999,67074,.16062E-3,-.75E-6,0
GLOBALSTAR M097,2013-005A,2026-06-25T11:27:17.424000,12.62271180,.0000142,52.0019,218.1017,105.8377,254.2505,0,U,39072,999,61795,.13769E-3,-.79E-6,0
GLOBALSTAR M093,2013-005B,2026-06-25T12:42:38.912256,12.62266042,.0000203,52.0076,211.2911,44.3026,315.7857,0,U,39073,999,61791,.12298E-3,-.82E-6,0
GLOBALSTAR M094,2013-005C,2026-06-25T20:18:33.972192,12.62268495,.000063,51.9944,124.4339,25.9507,334.1391,0,U,39074,999,61956,-.6538E-4,-.115E-5,0
GLOBALSTAR M096,2013-005D,2026-06-25T07:19:49.939104,12.62265642,.0000239,52.0052,174.8893,356.8696,3.2169,0,U,39075,999,61841,-.45624E-4,-.112E-5,0
GLOBALSTAR M078,2013-005E,2026-06-25T14:17:08.185632,12.62259356,.0000484,51.9866,258.0065,265.9200,94.1612,0,U,39076,999,61707,.57558E-3,-.1E-7,0
GLOBALSTAR M095,2013-005F,2026-06-25T11:07:34.024800,12.62263562,.0000078,52.0077,256.0234,114.0594,246.0281,0,U,39077,999,61691,.58773E-4,-.93E-6,0
GLOBALSTAR M087,2022-064A,2026-06-25T15:14:37.500864,12.62269213,.0000877,52.0010,36.7333,55.5990,304.4960,0,U,52888,999,19220,.17061E-4,-.101E-5,0
